GONETS-M 19             
1 46488U 20068C   26178.29107427 -.00000016  00000+0 -18820-3 0  9992
2 46488  82.4970 340.7822 0013908  28.9424 331.2424 12.42892363260500
DEKART                  
1 46493U 20068H   26178.29489275  .00012111  00000+0  33059-3 0  9990
2 46493  97.8736 188.2896 0007312 240.9596 119.0916 15.37568142317323
NORBI                   
1 46494U 20068J   26178.30150806  .00022942  00000+0  42682-3 0  9993
2 46494  97.8623 195.1594 0006167 203.3812 156.7158 15.48873405317770
SALSAT                  
1 46495U 20068K   26177.95657953  .00008212  00000+0  28601-3 0  9998
2 46495  97.8848 181.6168 0007823 266.2984  93.7361 15.29932421316852
ICEYE-X6                
1 46497U 20068M   26178.23378964  .00002725  00000+0  19893-3 0  9990
2 46497  98.0974 172.3861 0008946  64.3035 295.9113 15.04576864314740
NETSAT-4                
1 46504U 20068U   26178.29966501  .00018932  00000+0  41428-3 0  9991
2 46504  97.8598 187.3544 0003185 282.9922  77.0969 15.44191965317330
NETSAT-3                
1 46505U 20068V   26178.24880786  .00019725  00000+0  44884-3 0  9997
2 46505  97.8651 185.5034 0003034 312.7738  47.3253 15.43018128317238
NETSAT-1                
1 46506U 20068W   26177.98050588  .00012112  00000+0  36068-3 0  9995
2 46506  97.8742 179.4288 0003797 359.9684   0.1557 15.34858405316808
NETSAT-2                
1 46507U 20068X   26178.00192915  .00024515  00000+0  49664-3 0  9997
2 46507  97.8611 186.9638 0001955 349.3625  10.7581 15.46408837317255
TIANQI-6                
1 46810U 20076D   26177.87535925  .00003932  00000+0  25697-3 0  9999
2 46810  35.0003 349.0031 0011019 257.0027 102.9452 15.07244925310047
KSM1-C                  
1 46906U 20081B   26177.96908812  .00010558  00000+0  39343-3 0  9995
2 46906  36.8967 358.5454 0003549 300.9039  59.1361 15.26897442310664
KSM1-D                  
1 46907U 20081C   26178.24575097  .00008824  00000+0  35029-3 0  9993
2 46907  36.8981   6.0427 0004570 327.6003  32.4464 15.24861457310638
KSM1-A                  
1 46912U 20081H   26177.97735229  .00009707  00000+0  37080-3 0  9993
2 46912  36.8981   0.9621 0003120   8.2739 351.8061 15.26108011310678
R2                      
1 46913U 20081J   26178.19850129  .00008438  00000+0  32798-3 0  9997
2 46913  36.8984 359.6322 0007894 359.7244   0.3499 15.25567902313515
KSM1-B                  
1 46914U 20081K   26178.31610100  .00006750  00000+0  27068-3 0  9994
2 46914  36.9037   6.2390 0005702 352.9049   7.1619 15.24647059313734
GONETS-M 20             
1 47227U 20091A   26178.30962942  .00000124  00000+0  82543-3 0  9994
2 47227  82.5048 296.1433 0021629 156.2311 203.9773 12.42894522252333
GONETS-M 21             
1 47228U 20091B   26178.28354045  .00000074  00000+0  46477-3 0  9991
2 47228  82.4972 294.8604 0015226 169.0393 191.1021 12.42887446252322
GONETS-M 22             
1 47229U 20091C   26178.33709426  .00000043  00000+0  23719-3 0  9995
2 47229  82.5030 295.7304 0022540 151.6924 208.5386 12.42893392252289
CUBEL                   
1 47448U 21006AM  26178.09449902  .00017956  00000+0  42874-3 0  9992
2 47448  97.2332 228.5859 0007909 132.6483 227.5432 15.41547944301289
ARKTIKA-M 1             
1 47719U 21016A   26175.46896265 -.00000298  00000+0  00000+0 0  9993
2 47719  63.2470  56.5720 7291000 269.9787  14.5750  2.00620016 38936
STARLINK-2342           
1 47883U 21021Z   26178.33335648  .00163730  00000+0  68763-3 0  9997
2 47883  53.1529  97.0900 0002826 201.2067 105.7376 15.84561019  5754
GRUS-1B                 
1 47934U 21022C   26178.25781583  .00000765  00000+0  68210-4 0  9995
2 47934  97.5376  61.1246 0014727 288.0000  71.9618 14.98738890287405
UNISAT-7                
1 47945U 21022P   26178.29202394  .00015477  00000+0  37976-3 0  9999
2 47945  97.3888  83.3228 0010311  48.8202 311.3932 15.40735621291413
GLOBAL-9                
1 47971U 21023G   26177.74695876  .00017083  00000+0  33796-3 0  9990
2 47971  44.9788 196.7807 0003585  12.9935 347.1047 15.46930428296429
AII-BRAVO               
1 48270U 21034C   26178.13731625  .00004037  00000+0  30000-3 0  9992
2 48270  97.5626 232.8222 0004478 211.1979 148.8981 15.03551937281113
TYVAK-182A              
1 48271U 21034D   26178.09600938  .00005321  00000+0  36662-3 0  9997
2 48271  97.5729 236.8413 0004268 303.6490  56.4329 15.06255121281328
CSS (TIANHE)            
1 48274U 21035A   26178.27740249  .00022896  00000+0  26515-3 0  9993
2 48274  41.4688 260.5778 0008136 162.4826 197.6295 15.61248881294749
TYVAK-0130              
1 48606U 21041BF  26178.18601696  .00008965  00000+0  33886-3 0  9991
2 48606  52.9960 339.6466 0009579 195.0821 164.9893 15.27703075281918
