OBJECT_NAME,OBJECT_ID,EPOCH,MEAN_MOTION,ECCENTRICITY,INCLINATION,RA_OF_ASC_NODE,ARG_OF_PERICENTER,MEAN_ANOMALY,EPHEMERIS_TYPE,CLASSIFICATION_TYPE,NORAD_CAT_ID,ELEMENT_SET_NO,REV_AT_EPOCH,BSTAR,MEAN_MOTION_DOT,MEAN_MOTION_DDOT
GONETS-M 19,2020-068C,2026-06-27T06:59:08.816928,12.42892363,.00139089,82.4970,340.7822,28.9424,331.2424,0,U,46488,999,26050,-.18819832E-3,-.16E-6,0
DEKART,2020-068H,2026-06-27T07:04:38.733600,15.37568142,.00073127,97.8736,188.2896,240.9596,119.0916,0,U,46493,999,31732,.33058864E-3,.12111E-3,0
NORBI,2020-068J,2026-06-27T07:14:10.296384,15.48873405,.00061675,97.8623,195.1594,203.3812,156.7158,0,U,46494,999,31777,.42681989E-3,.22942E-3,0
SALSAT,2020-068K,2026-06-26T22:57:28.471392,15.29932421,.0007823,97.8848,181.6168,266.2984,93.7361,0,U,46495,999,31685,.28601E-3,.8212E-4,0
ICEYE-X6,2020-068M,2026-06-27T05:36:39.424896,15.04576864,.00089465,98.0974,172.3861,64.3035,295.9113,0,U,46497,999,31474,.19892574E-3,.2725E-4,0
NETSAT-4,2020-068U,2026-06-27T07:11:31.056864,15.44191965,.00031855,97.8598,187.3544,282.9922,77.0969,0,U,46504,999,31733,.4142771E-3,.18932E-3,0
NETSAT-3,2020-068V,2026-06-27T05:58:16.999104,15.43018128,.00030343,97.8651,185.5034,312.7738,47.3253,0,U,46505,999,31723,.44883833E-3,.19725E-3,0
NETSAT-1,2020-068W,2026-06-26T23:31:55.708032,15.34858405,.0003797,97.8742,179.4288,359.9684,0.1557,0,U,46506,999,31680,.36068261E-3,.12112E-3,0
NETSAT-2,2020-068X,2026-06-27T00:02:46.678560,15.46408837,.0001955,97.8611,186.9638,349.3625,10.7581,0,U,46507,999,31725,.49663917E-3,.24515E-3,0
TIANQI-6,2020-076D,2026-06-26T21:00:31.039200,15.07244925,.0011019,35.0003,349.0031,257.0027,102.9452,0,U,46810,999,31004,.25697E-3,.3932E-4,0
KSM1-C,2020-081B,2026-06-26T23:15:29.213568,15.26897442,.00035495,36.8967,358.5454,300.9039,59.1361,0,U,46906,999,31066,.39342987E-3,.10558E-3,0
KSM1-D,2020-081C,2026-06-27T05:53:52.883808,15.24861457,.00045707,36.8981,6.0427,327.6003,32.4464,0,U,46907,999,31063,.3502865E-3,.8824E-4,0
KSM1-A,2020-081H,2026-06-26T23:27:23.237856,15.26108011,.00031208,36.8981,0.9621,8.2739,351.8061,0,U,46912,999,31067,.37080468E-3,.9707E-4,0
R2,2020-081J,2026-06-27T04:45:50.511456,15.25567902,.0007894,36.8984,359.6322,359.7244,0.3499,0,U,46913,999,31351,.32798183E-3,.8438E-4,0
KSM1-B,2020-081K,2026-06-27T07:35:11.126400,15.24647059,.0005702,36.9037,6.2390,352.9049,7.1619,0,U,46914,999,31373,.27067866E-3,.675E-4,0
GONETS-M 20,2020-091A,2026-06-27T07:25:51.981888,12.42894522,.00216298,82.5048,296.1433,156.2311,203.9773,0,U,47227,999,25233,.82542556E-3,.124E-5,0
GONETS-M 21,2020-091B,2026-06-27T06:48:17.894880,12.42887446,.00152264,82.4972,294.8604,169.0393,191.1021,0,U,47228,999,25232,.46476686E-3,.74E-6,0
GONETS-M 22,2020-091C,2026-06-27T08:05:24.944064,12.42893392,.00225403,82.5030,295.7304,151.6924,208.5386,0,U,47229,999,25228,.23719262E-3,.43E-6,0
CUBEL,2021-006AM,2026-06-27T02:16:04.715328,15.41547944,.0007909,97.2332,228.5859,132.6483,227.5432,0,U,47448,999,30128,.42873713E-3,.17956E-3,0
ARKTIKA-M 1,2021-016A,2026-06-24T11:15:18.372960,2.00620016,.7291,63.2470,56.5720,269.9787,14.5750,0,U,47719,999,3893,0,-.298E-5,0
STARLINK-2342,2021-021Z,2026-06-27T08:00:01.999872,15.84561019,.00028262,53.1529,97.0900,201.2067,105.7376,0,U,47883,999,575,.68762635E-3,.16373E-2,0
GRUS-1B,2021-022C,2026-06-27T06:11:15.287712,14.98738890,.00147274,97.5376,61.1246,288.0000,71.9618,0,U,47934,999,28740,.68210052E-4,.765E-5,0
UNISAT-7,2021-022P,2026-06-27T07:00:30.868416,15.40735621,.00103113,97.3888,83.3228,48.8202,311.3932,0,U,47945,999,29141,.37975647E-3,.15477E-3,0
GLOBAL-9,2021-023G,2026-06-26T17:55:37.236864,15.46930428,.00035855,44.9788,196.7807,12.9935,347.1047,0,U,47971,999,29642,.3379558E-3,.17083E-3,0
AII-BRAVO,2021-034C,2026-06-27T03:17:44.124000,15.03551937,.00044785,97.5626,232.8222,211.1979,148.8981,0,U,48270,999,28111,.29999947E-3,.4037E-4,0
TYVAK-182A,2021-034D,2026-06-27T02:18:15.210432,15.06255121,.00042683,97.5729,236.8413,303.6490,56.4329,0,U,48271,999,28132,.36662367E-3,.5321E-4,0
CSS (TIANHE),2021-035A,2026-06-27T06:39:27.575136,15.61248881,.00081364,41.4688,260.5778,162.4826,197.6295,0,U,48274,999,29474,.26515193E-3,.22896E-3,0
TYVAK-0130,2021-041BF,2026-06-27T04:27:51.865344,15.27703075,.00095794,52.9960,339.6466,195.0821,164.9893,0,U,48606,999,28191,.33885532E-3,.8965E-4,0
